{
    "links": {
        "self": "http://www.neowsapp.com/rest/v1/neo/3553059?api_key=iIulBulltgU6a56xZRHN4H3l9WmuAYTsLGpBGhQ2"
    },
    "id": "3553059",
    "neo_reference_id": "3553059",
    "name": "(2010 XS10)",
    "designation": "2010 XS10",
    "nasa_jpl_url": "http://ssd.jpl.nasa.gov/sbdb.cgi?sstr=3553059",
    "absolute_magnitude_h": 21.6,
    "estimated_diameter": {
        "kilometers": {
            "estimated_diameter_min": 0.1272198785,
            "estimated_diameter_max": 0.2844722965
        },
        "meters": {
            "estimated_diameter_min": 127.2198785394,
            "estimated_diameter_max": 284.4722965033
        },
        "miles": {
            "estimated_diameter_min": 0.0790507431,
            "estimated_diameter_max": 0.1767628354
        },
        "feet": {
            "estimated_diameter_min": 417.3880663071,
            "estimated_diameter_max": 933.3080892598
        }
    },
    "is_potentially_hazardous_asteroid": false,
    "close_approach_data": [
        {
            "close_approach_date": "2010-10-07",
            "close_approach_date_full": "2010-Oct-07 19:20",
            "epoch_date_close_approach": 1286479200000,
            "relative_velocity": {
                "kilometers_per_second": "7.3449187817",
                "kilometers_per_hour": "26441.7076139763",
                "miles_per_hour": "16429.8488226954"
            },
            "miss_distance": {
                "astronomical": "0.2121556327",
                "lunar": "82.5285411203",
                "kilometers": "31738030.760422349",
                "miles": "19721097.8350684562"
            },
            "orbiting_body": "Earth"
        }
    ],
    "orbital_data": {
        "orbit_id": "9",
        "orbit_determination_date": "2017-04-06 08:55:22",
        "first_observation_date": "2010-12-03",
        "last_observation_date": "2010-12-09",
        "data_arc_in_days": 6,
        "observations_used": 25,
        "orbit_uncertainty": "9",
        "minimum_orbit_intersection": ".183866",
        "jupiter_tisserand_invariant": "3.700",
        "epoch_osculation": "2455534.5",
        "eccentricity": ".4429664917904909",
        "semi_major_axis": "2.001597288769083",
        "inclination": "8.493759787612705",
        "ascending_node_longitude": "250.4486587109708",
        "orbital_period": "1034.340388086844",
        "perihelion_distance": "1.114956759785684",
        "perihelion_argument": "106.1346309075617",
        "aphelion_distance": "2.888237817752482",
        "perihelion_time": "2455465.529610351192",
        "mean_anomaly": "24.00499928219586",
        "mean_motion": ".3480479000398214",
        "equinox": "J2000",
        "orbit_class": {
            "orbit_class_type": "AMO",
            "orbit_class_description": "Near-Earth asteroid orbits similar to that of 1221 Amor",
            "orbit_class_range": "1.017 AU < q (perihelion) < 1.3 AU"
        }
    },
    "is_sentry_object": false
}